{
  "type": "FeatureCollection",
  "features": [
    {
      "type": "Feature",
      "properties": {
        "norad_id": 66382,
        "name": "STARLINK-35639",
        "group": "last-30-days",
        "lat": 18.019957022513058,
        "lon": -52.39159828612502,
        "alt_km": 445.2794089156114,
        "timestamp": "2025-12-06T14:35:35.908631+00:00",
        "meta_object_name": "STARLINK-35639",
        "meta_object_id": "2025-257C",
        "meta_epoch": "2025-12-06T06:42:20.908224",
        "meta_mean_motion": 15.39708498,
        "meta_eccentricity": 5.663e-05,
        "meta_inclination": 53.1609,
        "meta_ra_of_asc_node": 295.0421,
        "meta_arg_of_pericenter": 256.004,
        "meta_mean_anomaly": 104.0902,
        "meta_ephemeris_type": 0,
        "meta_classification_type": "U",
        "meta_norad_cat_id": 66382,
        "meta_element_set_no": 999,
        "meta_rev_at_epoch": 537,
        "meta_bstar": 0.0025441918,
        "meta_mean_motion_dot": 0.00103052,
        "meta_mean_motion_ddot": 0,
        "tle_line1": "1 66382U 25257C   25340.27940866  .00103052  00000+0  25442-2 0  9991",
        "tle_line2": "2 66382  53.1609 295.0421 0000566 256.0040 104.0902 15.39708498  5373"
      },
      "geometry": {
        "type": "Point",
        "coordinates": [
          -52.39159828612502,
          18.019957022513058
        ]
      }
    },
    {
      "type": "Feature",
      "properties": {
        "norad_id": 66383,
        "name": "STARLINK-35690",
        "group": "last-30-days",
        "lat": 36.760349099271664,
        "lon": -32.499014289360964,
        "alt_km": 441.7602190934849,
        "timestamp": "2025-12-06T14:35:35.908641+00:00",
        "meta_object_name": "STARLINK-35690",
        "meta_object_id": "2025-257D",
        "meta_epoch": "2025-12-06T08:00:01.999872",
        "meta_mean_motion": 15.39586188,
        "meta_eccentricity": 0.00013967,
        "meta_inclination": 53.1612,
        "meta_ra_of_asc_node": 294.738,
        "meta_arg_of_pericenter": 72.6275,
        "meta_mean_anomaly": 252.4845,
        "meta_ephemeris_type": 0,
        "meta_classification_type": "U",
        "meta_norad_cat_id": 66383,
        "meta_element_set_no": 999,
        "meta_rev_at_epoch": 546,
        "meta_bstar": -0.00027967662,
        "meta_mean_motion_dot": -0.00011557,
        "meta_mean_motion_ddot": 0,
        "tle_line1": "1 66383U 25257D   25340.33335648 -.00011557  00000+0 -27968-3 0  9991",
        "tle_line2": "2 66383  53.1612 294.7380 0001396  72.6275 252.4845 15.39586188  5466"
      },
      "geometry": {
        "type": "Point",
        "coordinates": [
          -32.499014289360964,
          36.760349099271664
        ]
      }
    },
    {
      "type": "Feature",
      "properties": {
        "norad_id": 66384,
        "name": "STARLINK-35662",
        "group": "last-30-days",
        "lat": 37.92753582070325,
        "lon": -30.813382219680026,
        "alt_km": 441.661998114213,
        "timestamp": "2025-12-06T14:35:35.908652+00:00",
        "meta_object_name": "STARLINK-35662",
        "meta_object_id": "2025-257E",
        "meta_epoch": "2025-12-06T08:00:01.999872",
        "meta_mean_motion": 15.39585619,
        "meta_eccentricity": 0.00011852,
        "meta_inclination": 53.1612,
        "meta_ra_of_asc_node": 294.7354,
        "meta_arg_of_pericenter": 90.6779,
        "meta_mean_anomaly": 236.1834,
        "meta_ephemeris_type": 0,
        "meta_classification_type": "U",
        "meta_norad_cat_id": 66384,
        "meta_element_set_no": 999,
        "meta_rev_at_epoch": 546,
        "meta_bstar": 0.0024651888,
        "meta_mean_motion_dot": 0.00099387,
        "meta_mean_motion_ddot": 0,
        "tle_line1": "1 66384U 25257E   25340.33335648  .00099387  00000+0  24652-2 0  9993",
        "tle_line2": "2 66384  53.1612 294.7354 0001185  90.6779 236.1834 15.39585619  5468"
      },
      "geometry": {
        "type": "Point",
        "coordinates": [
          -30.813382219680026,
          37.92753582070325
        ]
      }
    },
    {
      "type": "Feature",
      "properties": {
        "norad_id": 66385,
        "name": "STARLINK-35659",
        "group": "last-30-days",
        "lat": 19.34899051611266,
        "lon": -51.24611856570909,
        "alt_km": 444.5360894979185,
        "timestamp": "2025-12-06T14:35:35.908662+00:00",
        "meta_object_name": "STARLINK-35659",
        "meta_object_id": "2025-257F",
        "meta_epoch": "2025-12-06T06:41:52.581984",
        "meta_mean_motion": 15.39630174,
        "meta_eccentricity": 0.00013732,
        "meta_inclination": 53.1611,
        "meta_ra_of_asc_node": 295.0411,
        "meta_arg_of_pericenter": 72.9424,
        "meta_mean_anomaly": 287.1731,
        "meta_ephemeris_type": 0,
        "meta_classification_type": "U",
        "meta_norad_cat_id": 66385,
        "meta_element_set_no": 999,
        "meta_rev_at_epoch": 537,
        "meta_bstar": 0.0016658118,
        "meta_mean_motion_dot": 0.0006684,
        "meta_mean_motion_ddot": 0,
        "tle_line1": "1 66385U 25257F   25340.27908081  .00066840  00000+0  16658-2 0  9999",
        "tle_line2": "2 66385  53.1611 295.0411 0001373  72.9424 287.1731 15.39630174  5374"
      },
      "geometry": {
        "type": "Point",
        "coordinates": [
          -51.24611856570909,
          19.34899051611266
        ]
      }
    },
    {
      "type": "Feature",
      "properties": {
        "norad_id": 66386,
        "name": "STARLINK-35651",
        "group": "last-30-days",
        "lat": 50.34394569671141,
        "lon": -1.8625674452152028,
        "alt_km": 439.70267290582524,
        "timestamp": "2025-12-06T14:35:35.908676+00:00",
        "meta_object_name": "STARLINK-35651",
        "meta_object_id": "2025-257G",
        "meta_epoch": "2025-12-06T08:00:01.999872",
        "meta_mean_motion": 15.39503464,
        "meta_eccentricity": 0.00012825,
        "meta_inclination": 53.1609,
        "meta_ra_of_asc_node": 294.6869,
        "meta_arg_of_pericenter": 67.6039,
        "meta_mean_anomaly": 283.2846,
        "meta_ephemeris_type": 0,
        "meta_classification_type": "U",
        "meta_norad_cat_id": 66386,
        "meta_element_set_no": 999,
        "meta_rev_at_epoch": 546,
        "meta_bstar": 0.0038746779,
        "meta_mean_motion_dot": 0.00157217,
        "meta_mean_motion_ddot": 0,
        "tle_line1": "1 66386U 25257G   25340.33335648  .00157217  00000+0  38747-2 0  9992",
        "tle_line2": "2 66386  53.1609 294.6869 0001282  67.6039 283.2846 15.39503464  5461"
      },
      "geometry": {
        "type": "Point",
        "coordinates": [
          -1.8625674452152028,
          50.34394569671141
        ]
      }
    },
    {
      "type": "Feature",
      "properties": {
        "norad_id": 66387,
        "name": "STARLINK-35661",
        "group": "last-30-days",
        "lat": 50.93096914208971,
        "lon": 0.8344174385149534,
        "alt_km": 439.3241508127803,
        "timestamp": "2025-12-06T14:35:35.908686+00:00",
        "meta_object_name": "STARLINK-35661",
        "meta_object_id": "2025-257H",
        "meta_epoch": "2025-12-06T08:00:01.999872",
        "meta_mean_motion": 15.39587646,
        "meta_eccentricity": 0.00016852,
        "meta_inclination": 53.1609,
        "meta_ra_of_asc_node": 294.6836,
        "meta_arg_of_pericenter": 87.7613,
        "meta_mean_anomaly": 264.8926,
        "meta_ephemeris_type": 0,
        "meta_classification_type": "U",
        "meta_norad_cat_id": 66387,
        "meta_element_set_no": 999,
        "meta_rev_at_epoch": 546,
        "meta_bstar": 0.00059025529,
        "meta_mean_motion_dot": 0.00023257,
        "meta_mean_motion_ddot": 0,
        "tle_line1": "1 66387U 25257H   25340.33335648  .00023257  00000+0  59026-3 0  9993",
        "tle_line2": "2 66387  53.1609 294.6836 0001685  87.7613 264.8926 15.39587646  5462"
      },
      "geometry": {
        "type": "Point",
        "coordinates": [
          0.8344174385149534,
          50.93096914208971
        ]
      }
    },
    {
      "type": "Feature",
      "properties": {
        "norad_id": 66388,
        "name": "STARLINK-35647",
        "group": "last-30-days",
        "lat": 52.00436511409664,
        "lon": 39.657938189104286,
        "alt_km": 439.18454507318984,
        "timestamp": "2025-12-06T14:35:35.908696+00:00",
        "meta_object_name": "STARLINK-35647",
        "meta_object_id": "2025-257J",
        "meta_epoch": "2025-12-06T08:00:01.999872",
        "meta_mean_motion": 15.39576518,
        "meta_eccentricity": 0.00015062,
        "meta_inclination": 53.1606,
        "meta_ra_of_asc_node": 294.6358,
        "meta_arg_of_pericenter": 100.3763,
        "meta_mean_anomaly": 276.1744,
        "meta_ephemeris_type": 0,
        "meta_classification_type": "U",
        "meta_norad_cat_id": 66388,
        "meta_element_set_no": 999,
        "meta_rev_at_epoch": 546,
        "meta_bstar": 0.0025439935,
        "meta_mean_motion_dot": 0.0010259,
        "meta_mean_motion_ddot": 0,
        "tle_line1": "1 66388U 25257J   25340.33335648  .00102590  00000+0  25440-2 0  9994",
        "tle_line2": "2 66388  53.1606 294.6358 0001506 100.3763 276.1744 15.39576518  5469"
      },
      "geometry": {
        "type": "Point",
        "coordinates": [
          39.657938189104286,
          52.00436511409664
        ]
      }
    }
  ]
}